start=new Date('2022-06-18T00:00:00.000Z').valueOf();
sats=[{"TLE_LINE1":"1 45783U 20038BF  22166.80954831  .00000108  00000-0  26153-4 0  9995","NORAD_CAT_ID":"45783","BSTAR":"0.00002615300000","RCS_SIZE":"LARGE","SITE":"AFETR","GP_ID":"206234705","APOAPSIS":"548.272","OBJECT_NAME":"STARLINK-1505","CLASSIFICATION_TYPE":"U","OBJECT_TYPE":"PAYLOAD","MEAN_ELEMENT_THEORY":"SGP4","MEAN_MOTION_DDOT":"0.0000000000000","PERIAPSIS":"546.212","MEAN_MOTION_DOT":"0.00000108","MEAN_MOTION":"15.06390794","DECAY_DATE":null,"EPHEMERIS_TYPE":"0","MEAN_ANOMALY":"293.6152","REV_AT_EPOCH":"11134","REF_FRAME":"TEME","SEMIMAJOR_AXIS":"6925.377","CENTER_NAME":"EARTH","OBJECT_ID":"2020-038BF","FILE":"3496999","INCLINATION":"53.0541","LAUNCH_DATE":"2020-06-13","COUNTRY_CODE":"US","EPOCH":"2022-06-15T19:25:44.973984","ELEMENT_SET_NO":"999","RA_OF_ASC_NODE":"194.8293","PERIOD":"95.593","TLE_LINE2":"2 45783  53.0541 194.8293 0001487  66.4993 293.6152 15.06390794111342","ARG_OF_PERICENTER":"66.4993","ECCENTRICITY":"0.00014870","TIME_SYSTEM":"UTC"},{"RCS_SIZE":"LARGE","BSTAR":"-0.00005162100000","TLE_LINE1":"1 45784U 20038BG  22166.78374400 -.00001050  00000-0 -51621-4 0  9998","NORAD_CAT_ID":"45784","OBJECT_NAME":"STARLINK-1510","APOAPSIS":"548.434","SITE":"AFETR","GP_ID":"206234955","MEAN_ELEMENT_THEORY":"SGP4","MEAN_MOTION_DDOT":"0.0000000000000","OBJECT_TYPE":"PAYLOAD","CLASSIFICATION_TYPE":"U","SEMIMAJOR_AXIS":"6925.374","REF_FRAME":"TEME","REV_AT_EPOCH":"11133","MEAN_ANOMALY":"299.4956","PERIAPSIS":"546.045","MEAN_MOTION_DOT":"-0.00001050","MEAN_MOTION":"15.06391583","DECAY_DATE":null,"EPHEMERIS_TYPE":"0","OBJECT_ID":"2020-038BG","CENTER_NAME":"EARTH","LAUNCH_DATE":"2020-06-13","FILE":"3496999","INCLINATION":"53.0528","TLE_LINE2":"2 45784  53.0528 194.9367 0001725  60.6205 299.4956 15.06391583111330","PERIOD":"95.593","ECCENTRICITY":"0.00017250","ARG_OF_PERICENTER":"60.6205","TIME_SYSTEM":"UTC","RA_OF_ASC_NODE":"194.9367","EPOCH":"2022-06-15T18:48:35.481600","COUNTRY_CODE":"US","ELEMENT_SET_NO":"999"},{"OBJECT_NAME":"STARLINK-1512","APOAPSIS":"548.549","GP_ID":"206206012","SITE":"AFETR","MEAN_MOTION_DDOT":"0.0000000000000","MEAN_ELEMENT_THEORY":"SGP4","CLASSIFICATION_TYPE":"U","OBJECT_TYPE":"PAYLOAD","RCS_SIZE":"LARGE","BSTAR":"0.00013300000000","NORAD_CAT_ID":"45785","TLE_LINE1":"1 45785U 20038BH  22166.36723878  .00001700  00000-0  13300-3 0  9991","LAUNCH_DATE":"2020-06-13","INCLINATION":"53.0541","FILE":"3496794","TIME_SYSTEM":"UTC","PERIOD":"95.592","TLE_LINE2":"2 45785  53.0541 196.8099 0001932  52.5138 307.6026 15.06400884111272","ARG_OF_PERICENTER":"52.5138","ECCENTRICITY":"0.00019320","RA_OF_ASC_NODE":"196.8099","ELEMENT_SET_NO":"999","COUNTRY_CODE":"US","EPOCH":"2022-06-15T08:48:49.430592","SEMIMAJOR_AXIS":"6925.346","REF_FRAME":"TEME","REV_AT_EPOCH":"11127","MEAN_ANOMALY":"307.6026","DECAY_DATE":null,"EPHEMERIS_TYPE":"0","PERIAPSIS":"545.873","MEAN_MOTION_DOT":"0.00001700","MEAN_MOTION":"15.06400884","OBJECT_ID":"2020-038BH","CENTER_NAME":"EARTH"},{"INCLINATION":"53.0554","FILE":"3496999","LAUNCH_DATE":"2020-06-13","TIME_SYSTEM":"UTC","TLE_LINE2":"2 45786  53.0554 194.8049 0001759  52.7949 307.3201 15.06390810111346","ECCENTRICITY":"0.00017590","PERIOD":"95.593","ARG_OF_PERICENTER":"52.7949","ELEMENT_SET_NO":"999","COUNTRY_CODE":"US","EPOCH":"2022-06-15T19:36:21.612384","RA_OF_ASC_NODE":"194.8049","REF_FRAME":"TEME","SEMIMAJOR_AXIS":"6925.377","DECAY_DATE":null,"EPHEMERIS_TYPE":"0","PERIAPSIS":"546.024","MEAN_MOTION":"15.06390810","MEAN_MOTION_DOT":"0.00000321","MEAN_ANOMALY":"307.3201","REV_AT_EPOCH":"11134","CENTER_NAME":"EARTH","OBJECT_ID":"2020-038BJ","OBJECT_NAME":"STARLINK-1513","GP_ID":"206235458","SITE":"AFETR","APOAPSIS":"548.460","MEAN_MOTION_DDOT":"0.0000000000000","MEAN_ELEMENT_THEORY":"SGP4","OBJECT_TYPE":"PAYLOAD","CLASSIFICATION_TYPE":"U","BSTAR":"0.00004046000000","RCS_SIZE":"LARGE","NORAD_CAT_ID":"45786","TLE_LINE1":"1 45786U 20038BJ  22166.81691681  .00000321  00000-0  40460-4 0  9994"},{"OBJECT_ID":"2020-038BK","CENTER_NAME":"EARTH","SEMIMAJOR_AXIS":"6925.347","REF_FRAME":"TEME","MEAN_ANOMALY":"301.1948","REV_AT_EPOCH":"11127","MEAN_MOTION":"15.06400475","PERIAPSIS":"546.092","MEAN_MOTION_DOT":"0.00000244","DECAY_DATE":null,"EPHEMERIS_TYPE":"0","TLE_LINE2":"2 45787  53.0550 196.8552 0001617  58.9199 301.1948 15.06400475111273","ARG_OF_PERICENTER":"58.9199","PERIOD":"95.592","ECCENTRICITY":"0.00016170","TIME_SYSTEM":"UTC","RA_OF_ASC_NODE":"196.8552","COUNTRY_CODE":"US","EPOCH":"2022-06-15T08:38:11.570496","ELEMENT_SET_NO":"999","LAUNCH_DATE":"2020-06-13","FILE":"3496794","INCLINATION":"53.0550","RCS_SIZE":"LARGE","BSTAR":"0.00003527700000","TLE_LINE1":"1 45787U 20038BK  22166.35985614  .00000244  00000-0  35277-4 0  9990","NORAD_CAT_ID":"45787","MEAN_ELEMENT_THEORY":"SGP4","MEAN_MOTION_DDOT":"0.0000000000000","OBJECT_TYPE":"PAYLOAD","CLASSIFICATION_TYPE":"U","OBJECT_NAME":"STARLINK-1517","APOAPSIS":"548.332","SITE":"AFETR","GP_ID":"206205020"},{"INCLINATION":"53.0547","FILE":"3496999","LAUNCH_DATE":"2020-08-07","ELEMENT_SET_NO":"999","COUNTRY_CODE":"US","EPOCH":"2022-06-15T14:21:52.762176","RA_OF_ASC_NODE":"125.7623","TIME_SYSTEM":"UTC","ECCENTRICITY":"0.00018720","TLE_LINE2":"2 46027  53.0547 125.7623 0001872  65.5635 294.5549 15.06385319103439","PERIOD":"95.593","ARG_OF_PERICENTER":"65.5635","EPHEMERIS_TYPE":"0","DECAY_DATE":null,"MEAN_MOTION_DOT":"-0.00000972","PERIAPSIS":"545.962","MEAN_MOTION":"15.06385319","MEAN_ANOMALY":"294.5549","REV_AT_EPOCH":"10343","REF_FRAME":"TEME","SEMIMAJOR_AXIS":"6925.394","CENTER_NAME":"EARTH","OBJECT_ID":"2020-055A","GP_ID":"206234230","SITE":"AFETR","APOAPSIS":"548.555","OBJECT_NAME":"STARLINK-1522","OBJECT_TYPE":"PAYLOAD","CLASSIFICATION_TYPE":"U","MEAN_MOTION_DDOT":"0.0000000000000","MEAN_ELEMENT_THEORY":"SGP4","NORAD_CAT_ID":"46027","TLE_LINE1":"1 46027U 20055A   22166.59852734 -.00000972  00000-0 -46391-4 0  9998","BSTAR":"-0.00004639100000","RCS_SIZE":"LARGE"},{"OBJECT_NAME":"STARLINK-1523","APOAPSIS":"548.408","SITE":"AFETR","GP_ID":"206286233","MEAN_ELEMENT_THEORY":"SGP4","MEAN_MOTION_DDOT":"0.0000000000000","CLASSIFICATION_TYPE":"U","OBJECT_TYPE":"PAYLOAD","RCS_SIZE":"LARGE","BSTAR":"0.00001999400000","TLE_LINE1":"1 46028U 20055B   22167.01134062  .00000016  00000-0  19994-4 0  9990","NORAD_CAT_ID":"46028","LAUNCH_DATE":"2020-08-07","FILE":"3497002","INCLINATION":"53.0546","ECCENTRICITY":"0.00017360","TLE_LINE2":"2 46028  53.0546 123.9067 0001736  65.9194 294.1976 15.06402509103514","PERIOD":"95.592","ARG_OF_PERICENTER":"65.9194","TIME_SYSTEM":"UTC","RA_OF_ASC_NODE":"123.9067","EPOCH":"2022-06-16T00:16:19.829568","COUNTRY_CODE":"US","ELEMENT_SET_NO":"999","SEMIMAJOR_AXIS":"6925.341","REF_FRAME":"TEME","MEAN_ANOMALY":"294.1976","REV_AT_EPOCH":"10351","PERIAPSIS":"546.004","MEAN_MOTION_DOT":"0.00000016","MEAN_MOTION":"15.06402509","EPHEMERIS_TYPE":"0","DECAY_DATE":null,"OBJECT_ID":"2020-055B","CENTER_NAME":"EARTH"},{"NORAD_CAT_ID":"46029","TLE_LINE1":"1 46029U 20055C   22167.00395986  .00000440  00000-0  48438-4 0  9990","RCS_SIZE":"LARGE","BSTAR":"0.00004843800000","APOAPSIS":"548.423","GP_ID":"206286981","SITE":"AFETR","OBJECT_NAME":"STARLINK-1526","CLASSIFICATION_TYPE":"U","OBJECT_TYPE":"PAYLOAD","MEAN_MOTION_DDOT":"0.0000000000000","MEAN_ELEMENT_THEORY":"SGP4","REV_AT_EPOCH":"10350","MEAN_ANOMALY":"293.0447","DECAY_DATE":null,"EPHEMERIS_TYPE":"0","MEAN_MOTION":"15.06411065","PERIAPSIS":"545.937","MEAN_MOTION_DOT":"0.00000440","SEMIMAJOR_AXIS":"6925.315","REF_FRAME":"TEME","OBJECT_ID":"2020-055C","CENTER_NAME":"EARTH","LAUNCH_DATE":"2020-08-07","INCLINATION":"53.0538","FILE":"3497002","RA_OF_ASC_NODE":"123.9484","ELEMENT_SET_NO":"999","COUNTRY_CODE":"US","EPOCH":"2022-06-16T00:05:42.131904","TIME_SYSTEM":"UTC","TLE_LINE2":"2 46029  53.0538 123.9484 0001795  67.0731 293.0447 15.06411065103501","ARG_OF_PERICENTER":"67.0731","PERIOD":"95.591","ECCENTRICITY":"0.00017950"},{"BSTAR":"-0.00002424800000","RCS_SIZE":"LARGE","TLE_LINE1":"1 46030U 20055D   22167.02239580 -.00000643  00000-0 -24248-4 0  9991","NORAD_CAT_ID":"46030","MEAN_ELEMENT_THEORY":"SGP4","MEAN_MOTION_DDOT":"0.0000000000000","CLASSIFICATION_TYPE":"U","OBJECT_TYPE":"PAYLOAD","OBJECT_NAME":"STARLINK-1534","SITE":"AFETR","GP_ID":"206285736","APOAPSIS":"548.445","CENTER_NAME":"EARTH","OBJECT_ID":"2020-055D","REF_FRAME":"TEME","SEMIMAJOR_AXIS":"6925.327","PERIAPSIS":"545.939","MEAN_MOTION":"15.06407032","MEAN_MOTION_DOT":"-0.00000643","EPHEMERIS_TYPE":"0","DECAY_DATE":null,"REV_AT_EPOCH":"10346","MEAN_ANOMALY":"295.3554","TLE_LINE2":"2 46030  53.0571 123.8705 0001810  64.7622 295.3554 15.06407032103464","PERIOD":"95.592","ARG_OF_PERICENTER":"64.7622","ECCENTRICITY":"0.00018100","TIME_SYSTEM":"UTC","EPOCH":"2022-06-16T00:32:14.997120","COUNTRY_CODE":"US","ELEMENT_SET_NO":"999","RA_OF_ASC_NODE":"123.8705","FILE":"3497002","INCLINATION":"53.0571","LAUNCH_DATE":"2020-08-07"},{"FILE":"3497002","INCLINATION":"53.0551","LAUNCH_DATE":"2020-08-07","COUNTRY_CODE":"US","EPOCH":"2022-06-16T00:37:34.057632","ELEMENT_SET_NO":"999","RA_OF_ASC_NODE":"123.8515","PERIOD":"95.592","TLE_LINE2":"2 46031  53.0551 123.8515 0001819  67.4929 292.6252 15.06399047103495","ECCENTRICITY":"0.00018190","ARG_OF_PERICENTER":"67.4929","TIME_SYSTEM":"UTC","PERIAPSIS":"545.957","MEAN_MOTION_DOT":"-0.00000298","MEAN_MOTION":"15.06399047","DECAY_DATE":null,"EPHEMERIS_TYPE":"0","REV_AT_EPOCH":"10349","MEAN_ANOMALY":"292.6252","REF_FRAME":"TEME","SEMIMAJOR_AXIS":"6925.351","CENTER_NAME":"EARTH","OBJECT_ID":"2020-055E","SITE":"AFETR","GP_ID":"206285485","APOAPSIS":"548.476","OBJECT_NAME":"STARLINK-1544","CLASSIFICATION_TYPE":"U","OBJECT_TYPE":"PAYLOAD","MEAN_ELEMENT_THEORY":"SGP4","MEAN_MOTION_DDOT":"0.0000000000000","TLE_LINE1":"1 46031U 20055E   22167.02608863 -.00000298  00000-0 -11241-5 0  9992","NORAD_CAT_ID":"46031","BSTAR":"-0.00000112410000","RCS_SIZE":"LARGE"}];
